NORAD_CAT_ID,OBJECT_NAME,OBJECT_TYPE,EPOCH,MEAN_MOTION,ECCENTRICITY,INCLINATION,RA_OF_ASC_NODE,ARG_OF_PERICENTER,MEAN_ANOMALY,BSTAR,MEAN_MOTION_DOT,MEAN_MOTION_DDOT,TLE_LINE0,TLE_LINE1,TLE_LINE2,SEMIMAJOR_AXIS,PERIOD,APOGEE,PERIGEE,DECAYED
53718.0,STARLINK-4695,PAYLOAD,2023-10-26 01:34:52,15.07216771,0.0001468,53.2158,180.0619,105.2717,254.8436,0.00028835,4.11e-05,0.0,0 STARLINK-4695,1 53718U 22107U   23299.06588875  .00004110  00000-0  28835-3 0  9993,2 53718  53.2158 180.0619 0001468 105.2717 254.8436 15.07216771 63724,6922.846,95.54,545.728,543.695,0.0
53718.0,STARLINK-4695,PAYLOAD,2023-10-26 20:40:44,15.07214327,0.0001383,53.2156,176.4955,104.4168,255.6977,0.00029235,4.171e-05,0.0,0 STARLINK-4695,1 53718U 22107U   23299.86162958  .00004171  00000-0  29235-3 0  9993,2 53718  53.2156 176.4955 0001383 104.4168 255.6977 15.07214327 63848,6922.854,95.54,545.676,543.761,0.0
53718.0,STARLINK-4695,PAYLOAD,2023-10-27 09:24:39,15.07215055,0.0001338,53.2156,174.1208,96.9636,263.1508,0.0001866,2.559e-05,0.0,0 STARLINK-4695,1 53718U 22107U   23300.39212211  .00002559  00000-0  18660-3 0  9990,2 53718  53.2156 174.1208 0001338  96.9636 263.1508 15.07215055 63471,6922.852,95.54,545.643,543.79,0.0
53718.0,STARLINK-4695,PAYLOAD,2023-10-27 20:33:04,15.07209008,0.00016,53.216,172.041,105.0555,255.0614,4.9036e-05,4.63e-06,0.0,0 STARLINK-4695,1 53718U 22107U   23300.85630728  .00000463  00000-0  49036-4 0  9992,2 53718  53.2160 172.0410 0001600 105.0555 255.0614 15.07209008 63549,6922.87,95.541,545.843,543.628,0.0
53718.0,STARLINK-4695,PAYLOAD,2023-10-27 22:08:34,15.07207639,0.0001533,53.2163,171.746,96.1317,263.9849,-3.1048e-06,-3.31e-06,0.0,0 STARLINK-4695,1 53718U 22107U   23300.92262073 -.00000331  00000-0 -31048-5 0  9995,2 53718  53.2163 171.7460 0001533  96.1317 263.9849 15.07207639 64002,6922.874,95.541,545.801,543.678,0.0
53718.0,STARLINK-4695,PAYLOAD,2023-10-28 01:19:33,15.07208967,0.0001506,53.2162,171.1518,94.8539,265.2625,2.5103e-05,9.9e-07,0.0,0 STARLINK-4695,1 53718U 22107U   23301.05524339  .00000099  00000-0  25103-4 0  9999,2 53718  53.2162 171.1518 0001506  94.8539 265.2625 15.07208967 64024,6922.87,95.541,545.778,543.693,0.0
53718.0,STARLINK-4695,PAYLOAD,2023-10-28 20:25:25,15.0720244,0.000164,53.2167,167.5882,95.5721,264.5458,-3.6823e-05,-8.44e-06,0.0,0 STARLINK-4695,1 53718U 22107U   23301.85099114 -.00000844  00000-0 -36823-4 0  9996,2 53718  53.2167 167.5882 0001640  95.5721 264.5458 15.07202440 63690,6922.89,95.541,545.891,543.62,0.0
53718.0,STARLINK-4695,PAYLOAD,2023-10-28 22:00:54,15.07207644,0.0001393,53.2147,167.2902,90.4511,269.664,-1.5265e-05,-5.16e-06,0.0,0 STARLINK-4695,1 53718U 22107U   23301.91729974 -.00000516  00000-0 -15265-4 0  9990,2 53718  53.2147 167.2902 0001393  90.4511 269.6640 15.07207644 64156,6922.874,95.541,545.704,543.775,0.0
53718.0,STARLINK-4695,PAYLOAD,2023-10-29 07:33:50,15.07211338,0.0001398,53.2149,165.5088,90.1964,269.9187,8.2687e-05,9.76e-06,0.0,0 STARLINK-4695,1 53718U 22107U   23302.31516925  .00000976  00000-0  82687-4 0  9995,2 53718  53.2149 165.5088 0001398  90.1964 269.9187 15.07211338 63768,6922.863,95.541,545.696,543.76,0.0
53718.0,STARLINK-4695,PAYLOAD,2023-10-29 21:53:14,15.07213014,0.0001433,53.2149,162.8397,90.751,269.3646,0.00026211,3.709e-05,0.0,0 STARLINK-4695,1 53718U 22107U   23302.91197649  .00003709  00000-0  26211-3 0  9996,2 53718  53.2149 162.8397 0001433  90.7510 269.3646 15.07213014 64302,6922.858,95.541,545.715,543.731,0.0
53718.0,STARLINK-4695,PAYLOAD,2023-10-30 21:45:35,15.07202042,0.0001383,53.2144,158.3853,100.7402,259.3745,-1.7793e-05,-5.54e-06,0.0,0 STARLINK-4695,1 53718U 22107U   23303.90666032 -.00000554  00000-0 -17793-4 0  9996,2 53718  53.2144 158.3853 0001383 100.7402 259.3745 15.07202042 64005,6922.892,95.541,545.714,543.799,0.0
53718.0,STARLINK-4695,PAYLOAD,2023-10-31 07:18:31,15.07204992,0.0001387,53.2148,156.6026,92.4229,267.6922,6.1998e-05,6.6e-06,0.0,0 STARLINK-4695,1 53718U 22107U   23304.30453154  .00000660  00000-0  61998-4 0  9992,2 53718  53.2148 156.6026 0001387  92.4229 267.6922 15.07204992 64511,6922.882,95.541,545.708,543.787,0.0
53718.0,STARLINK-4695,PAYLOAD,2023-10-31 21:37:55,15.07210133,0.0001359,53.2149,153.93,90.9676,269.1471,0.00017895,2.442e-05,0.0,0 STARLINK-4695,1 53718U 22107U   23304.90133801  .00002442  00000-0  17895-3 0  9998,2 53718  53.2149 153.9300 0001359  90.9676 269.1471 15.07210133 64605,6922.867,95.541,545.673,543.791,0.0
53718.0,STARLINK-4695,PAYLOAD,2023-11-01 07:10:51,15.07209641,0.0001367,53.2147,152.1483,91.594,268.5208,0.00030192,4.316e-05,0.0,0 STARLINK-4695,1 53718U 22107U   23305.29921045  .00004316  00000-0  30192-3 0  9993,2 53718  53.2147 152.1483 0001367  91.5940 268.5208 15.07209641 64216,6922.868,95.541,545.68,543.787,0.0
53718.0,STARLINK-4695,PAYLOAD,2023-11-01 21:30:15,15.07214245,0.0001381,53.2149,149.4758,91.4408,268.6742,0.00029303,4.181e-05,0.0,0 STARLINK-4695,1 53718U 22107U   23305.89601502  .00004181  00000-0  29303-3 0  9994,2 53718  53.2149 149.4758 0001381  91.4408 268.6742 15.07214245 64755,6922.854,95.54,545.675,543.763,0.0
53718.0,STARLINK-4695,PAYLOAD,2023-11-02 13:25:09,15.07205272,0.0001501,53.2151,146.5065,88.5594,271.5569,7.4591e-05,8.52e-06,0.0,0 STARLINK-4695,1 53718U 22107U   23306.55913786  .00000852  00000-0  74591-4 0  9999,2 53718  53.2151 146.5065 0001501  88.5594 271.5569 15.07205272 64406,6922.882,95.541,545.786,543.707,0.0
53718.0,STARLINK-4695,PAYLOAD,2023-11-02 19:47:06,15.07204551,0.0001374,53.215,145.3187,89.8354,270.2795,1.3097e-05,-8.4e-07,0.0,0 STARLINK-4695,1 53718U 22107U   23306.82438636 -.00000084  00000-0  13097-4 0  9997,2 53718  53.2150 145.3187 0001374  89.8354 270.2795 15.07204551 64892,6922.884,95.541,545.7,543.798,0.0
53718.0,STARLINK-4695,PAYLOAD,2023-11-03 13:17:29,15.07206703,0.0001415,53.2156,142.0524,88.0962,272.0192,6.0781e-05,6.42e-06,0.0,0 STARLINK-4695,1 53718U 22107U   23307.55381723  .00000642  00000-0  60781-4 0  9993,2 53718  53.2156 142.0524 0001415  88.0962 272.0192 15.07206703 65005,6922.877,95.541,545.722,543.763,0.0
53718.0,STARLINK-4695,PAYLOAD,2023-11-03 19:39:26,15.07211274,0.000142,53.2154,140.8644,87.1468,272.9686,7.9355e-05,9.25e-06,0.0,0 STARLINK-4695,1 53718U 22107U   23307.81906156  .00000925  00000-0  79355-4 0  9996,2 53718  53.2154 140.8644 0001420  87.1468 272.9686 15.07211274 64598,6922.863,95.541,545.711,543.745,0.0
53718.0,STARLINK-4695,PAYLOAD,2023-11-03 21:14:56,15.07213897,0.0001392,53.2163,140.5676,88.2285,271.8865,5.7854e-05,5.98e-06,0.0,0 STARLINK-4695,1 53718U 22107U   23307.88537147  .00000598  00000-0  57854-4 0  9999,2 53718  53.2163 140.5676 0001392  88.2285 271.8865 15.07213897 65059,6922.855,95.541,545.684,543.757,0.0
53718.0,STARLINK-4695,PAYLOAD,2023-11-03 22:50:25,15.07214473,0.0001397,53.2163,140.2708,86.0708,274.0443,9.1313e-05,1.107e-05,0.0,0 STARLINK-4695,1 53718U 22107U   23307.95168192  .00001107  00000-0  91313-4 0  9992,2 53718  53.2163 140.2708 0001397  86.0708 274.0443 15.07214473 65062,6922.853,95.54,545.686,543.751,0.0
53718.0,STARLINK-4695,PAYLOAD,2023-11-04 19:31:47,15.07200127,0.0001419,53.2167,136.4095,90.3782,269.7372,0.00010911,1.378e-05,0.0,0 STARLINK-4695,1 53718U 22107U   23308.81374755  .00001378  00000-0  10911-3 0  9996,2 53718  53.2167 136.4095 0001419  90.3782 269.7372 15.07200127 64744,6922.897,95.541,545.745,543.78,0.0
53718.0,STARLINK-4695,PAYLOAD,2023-11-05 05:04:43,15.07208385,0.0001467,53.2167,134.6285,89.267,270.849,9.4293e-05,1.152e-05,0.0,0 STARLINK-4695,1 53718U 22107U   23309.21161489  .00001152  00000-0  94293-4 0  9995,2 53718  53.2167 134.6285 0001467  89.2670 270.8490 15.07208385 64806,6922.872,95.541,545.753,543.721,0.0
53718.0,STARLINK-4695,PAYLOAD,2023-11-05 13:02:10,15.07209602,0.0001297,53.2163,133.1442,88.7133,271.4007,0.00017016,2.308e-05,0.0,0 STARLINK-4695,1 53718U 22107U   23309.54317202  .00002308  00000-0  17016-3 0  9998,2 53718  53.2163 133.1442 0001297  88.7133 271.4007 15.07209602 65300,6922.868,95.541,545.631,543.835,0.0
53718.0,STARLINK-4695,PAYLOAD,2023-11-05 19:24:07,15.07220232,0.0001327,53.2157,131.9572,88.9832,271.1311,0.00028496,4.059e-05,0.0,0 STARLINK-4695,1 53718U 22107U   23309.80841514  .00004059  00000-0  28496-3 0  9994,2 53718  53.2157 131.9572 0001327  88.9832 271.1311 15.07220232 64895,6922.836,95.54,545.619,543.782,0.0
53718.0,STARLINK-4695,PAYLOAD,2023-11-06 11:19:00,15.07218449,0.0001726,53.2156,128.9869,87.826,272.2929,0.00021446,2.984e-05,0.0,0 STARLINK-4695,1 53718U 22107U   23310.47153294  .00002984  00000-0  21446-3 0  9993,2 53718  53.2156 128.9869 0001726  87.8260 272.2929 15.07218449 64990,6922.841,95.54,545.901,543.511,0.0
53718.0,STARLINK-4695,PAYLOAD,2023-11-06 19:16:27,15.07212576,0.0001209,53.2144,127.5028,84.1851,275.9278,7.1244e-05,8.02e-06,0.0,0 STARLINK-4695,1 53718U 22107U   23310.80309175  .00000802  00000-0  71244-4 0  9990,2 53718  53.2144 127.5028 0001209  84.1851 275.9278 15.07212576 65499,6922.859,95.541,545.561,543.887,0.0
53718.0,STARLINK-4695,PAYLOAD,2023-11-07 19:08:48,15.07194565,0.0001165,53.2141,123.0489,90.9632,269.1493,-0.00017603,-2.961e-05,0.0,0 STARLINK-4695,1 53718U 22107U   23311.79778086 -.00002961  00000-0 -17603-3 0  9998,2 53718  53.2141 123.0489 0001165  90.9632 269.1493 15.07194565 65199,6922.914,95.542,545.586,543.973,0.0
53718.0,STARLINK-4695,PAYLOAD,2023-11-08 11:03:42,15.07197102,0.000123,53.2151,120.0795,83.3712,276.742,0.00011028,1.395e-05,0.0,0 STARLINK-4695,1 53718U 22107U   23312.46090612  .00001395  00000-0  11028-3 0  9998,2 53718  53.2151 120.0795 0001230  83.3712 276.7420 15.07197102 65740,6922.907,95.542,545.623,543.92,0.0
53718.0,STARLINK-4695,PAYLOAD,2023-11-08 19:01:08,15.07203533,0.0001267,53.2152,118.5937,85.1901,274.9235,0.00025105,3.54e-05,0.0,0 STARLINK-4695,1 53718U 22107U   23312.79246476  .00003540  00000-0  25105-3 0  9990,2 53718  53.2152 118.5937 0001267  85.1901 274.9235 15.07203533 65796,6922.887,95.541,545.629,543.875,0.0
